SL-8 R/B                
1 11574U 79089B   26080.39785806  .00000137  00000+0  49517-4 0  9993
2 11574  74.0674  69.3678 0016975 240.7215 119.2245 14.42356977437798
SL-14 R/B               
1 11672U 80005B   26080.60679295  .00000531  00000+0  51102-4 0  9991
2 11672  82.5122 295.9304 0017012 120.8815 239.4080 14.90943335478261
SL-8 R/B                
1 12139U 81003B   26080.58850409  .00027081  00000+0  68516-3 0  9999
2 12139  82.9349 279.0176 0261366 137.1669 225.0258 15.11462275316471
SL-3 R/B                
1 12465U 81046B   26080.59358244  .00014923  00000+0  34393-3 0  9996
2 12465  81.2281 275.4446 0018629 340.6181  19.4351 15.42273119440267
SL-3 R/B                
1 12904U 81103B   26080.61039755  .00007170  00000+0  31687-3 0  9993
2 12904  81.1608 199.4484 0012436 243.3173 116.6786 15.21511763975042
SL-3 R/B                
1 13068U 82013B   26080.61360715  .00004815  00000+0  20750-3 0  9991
2 13068  81.1745 146.7956 0023290 137.9160 222.3866 15.22121542406168
SL-3 R/B                
1 13154U 82039B   26080.58367298  .00002809  00000+0  16918-3 0  9996
2 13154  81.1579 202.2481 0029085 285.3562  74.4450 15.10144441383431
SL-3 R/B                
1 13403U 82079B   26080.54397738  .00008380  00000+0  33214-3 0  9993
2 13403  81.1490 179.0812 0025481 125.6431 234.7181 15.24957980379506
SL-14 R/B               
1 13553U 82092B   26080.57544108  .00000438  00000+0  46436-4 0  9999
2 13553  82.5672 130.2816 0018772 261.0209 260.3175 14.86676931330691
SL-3 R/B                
1 13819U 83010B   26080.47165117  .00021644  00000+0  42908-3 0  9994
2 13819  81.1058 347.8008 0016822  11.8751 348.2887 15.46744086359764
SL-3 R/B                
1 14208U 83075B   26080.58905646  .00014647  00000+0  38229-3 0  9995
2 14208  97.6140  85.6191 0021413 181.7426 178.3748 15.38683742331983
COSMOS 1536             
1 14699U 84013A   26080.53925673  .00007818  00000+0  32108-3 0  9991
2 14699  82.5413  96.0666 0012695 236.1827 123.8202 15.23973546274421
SL-14 R/B               
1 14820U 84027B   26080.47714088  .00000519  00000+0  56519-4 0  9995
2 14820  82.5401 233.9556 0016605 296.6556  63.2959 14.85988517249383
SL-8 R/B                
1 15483U 85006B   26080.55693043  .00000359  00000+0  12782-3 0  9990
2 15483  74.0438 239.3093 0017959 153.8661 271.8865 14.37792024155736
SL-12 R/B(2)            
1 15772U 85042D   26080.38047439  .00000063  00000+0  49542-4 0  9991
2 15772  71.1071  63.0269 0032904 108.7951 357.9679 14.21985462116057
SL-14 R/B               
1 15945U 85069B   26080.52566070  .00000509  00000+0  54689-4 0  9998
2 15945  82.5301  13.8058 0019526 149.0039 211.2335 14.86445859174596
SL-16 R/B               
1 16182U 85097B   26080.57770631  .00000268  00000+0  15825-3 0  9998
2 16182  71.0013 115.5264 0009579 245.5268 229.6900 14.16601231 88917
